{
"type": "FeatureCollection",
"name": "troncons",
"crs": { "type": "name", "properties": { "name": "urn:ogc:def:crs:OGC:1.3:CRS84" } },
"features": [
{ "type": "Feature", "properties": { "id": 1, "pente_pct": 1.1, "distance_debut": 0.0, "distance_fin": 89.027608166620524 }, "geometry": { "type": "LineString", "coordinates": [ [ 5.687705, 45.182016 ], [ 5.687689, 45.181988 ], [ 5.687669, 45.181953 ], [ 5.687632, 45.181895 ], [ 5.687584, 45.181835 ], [ 5.687543, 45.181721 ], [ 5.687447, 45.181737 ], [ 5.687392, 45.181727 ] ] } },
{ "type": "Feature", "properties": { "id": 2, "pente_pct": 2.1, "distance_debut": 89.027608166620524, "distance_fin": 101.74583790470918 }, "geometry": { "type": "LineString", "coordinates": [ [ 5.687392, 45.181727 ], [ 5.687341, 45.181708 ] ] } },
{ "type": "Feature", "properties": { "id": 3, "pente_pct": 6.2, "distance_debut": 101.74583790470918, "distance_fin": 114.46406764279783 }, "geometry": { "type": "LineString", "coordinates": [ [ 5.687341, 45.181708 ], [ 5.687132, 45.181629 ] ] } },
{ "type": "Feature", "properties": { "id": 4, "pente_pct": 16.9, "distance_debut": 114.46406764279783, "distance_fin": 228.92813528559566 }, "geometry": { "type": "LineString", "coordinates": [ [ 5.687132, 45.181629 ], [ 5.687046, 45.181598 ], [ 5.687015, 45.181584 ], [ 5.686942, 45.181534 ], [ 5.686887, 45.18146 ], [ 5.686869, 45.181427 ], [ 5.68684, 45.181372 ], [ 5.686762, 45.181373 ], [ 5.686723, 45.181377 ], [ 5.686691, 45.18138 ] ] } },
{ "type": "Feature", "properties": { "id": 5, "pente_pct": 15.4, "distance_debut": 228.92813528559566, "distance_fin": 368.82866240457076 }, "geometry": { "type": "LineString", "coordinates": [ [ 5.686691, 45.18138 ], [ 5.686652, 45.181393 ], [ 5.686629, 45.18142 ], [ 5.68662, 45.181453 ], [ 5.686622, 45.181493 ], [ 5.686663, 45.181703 ], [ 5.686661, 45.181719 ], [ 5.68665, 45.181733 ], [ 5.686629, 45.181743 ], [ 5.686605, 45.181744 ], [ 5.686582, 45.181738 ], [ 5.686567, 45.181724 ] ] } },
{ "type": "Feature", "properties": { "id": 6, "pente_pct": 17.4, "distance_debut": 368.82866240457076, "distance_fin": 508.72918952354587 }, "geometry": { "type": "LineString", "coordinates": [ [ 5.686567, 45.181724 ], [ 5.686545, 45.181681 ], [ 5.686519, 45.181641 ], [ 5.686448, 45.181566 ], [ 5.686294, 45.181443 ], [ 5.6862, 45.181357 ], [ 5.68615, 45.18128 ], [ 5.686104, 45.181202 ], [ 5.686014, 45.181107 ], [ 5.685952, 45.181055 ], [ 5.685901, 45.180992 ], [ 5.68587, 45.180924 ] ] } },
{ "type": "Feature", "properties": { "id": 7, "pente_pct": 13.8, "distance_debut": 508.72918952354587, "distance_fin": 534.1656489997232 }, "geometry": { "type": "LineString", "coordinates": [ [ 5.68587, 45.180924 ], [ 5.685863, 45.180908 ], [ 5.685847, 45.180895 ] ] } },
{ "type": "Feature", "properties": { "id": 8, "pente_pct": 1.6, "distance_debut": 534.1656489997232, "distance_fin": 585.03856795207776 }, "geometry": { "type": "LineString", "coordinates": [ [ 5.685847, 45.180895 ], [ 5.685824, 45.180889 ], [ 5.685799, 45.18089 ], [ 5.685778, 45.180898 ], [ 5.685766, 45.180909 ] ] } },
{ "type": "Feature", "properties": { "id": 9, "pente_pct": 0.2, "distance_debut": 585.03856795207776, "distance_fin": 597.75679769016642 }, "geometry": { "type": "LineString", "coordinates": [ [ 5.685766, 45.180909 ], [ 5.68576, 45.180922 ] ] } },
{ "type": "Feature", "properties": { "id": 10, "pente_pct": 10.4, "distance_debut": 597.75679769016642, "distance_fin": 635.91148690443231 }, "geometry": { "type": "LineString", "coordinates": [ [ 5.68576, 45.180922 ], [ 5.685761, 45.180936 ], [ 5.685769, 45.180948 ], [ 5.685794, 45.181002 ] ] } },
{ "type": "Feature", "properties": { "id": 11, "pente_pct": 8.9, "distance_debut": 635.91148690443231, "distance_fin": 686.78440585678698 }, "geometry": { "type": "LineString", "coordinates": [ [ 5.685794, 45.181002 ], [ 5.685823, 45.181088 ], [ 5.685848, 45.181305 ], [ 5.685884, 45.181461 ], [ 5.685946, 45.181594 ] ] } },
{ "type": "Feature", "properties": { "id": 12, "pente_pct": 6.9, "distance_debut": 686.78440585678698, "distance_fin": 699.50263559487564 }, "geometry": { "type": "LineString", "coordinates": [ [ 5.685946, 45.181594 ], [ 5.686, 45.181642 ] ] } },
{ "type": "Feature", "properties": { "id": 13, "pente_pct": -2.2, "distance_debut": 699.50263559487564, "distance_fin": 763.09378428531886 }, "geometry": { "type": "LineString", "coordinates": [ [ 5.686, 45.181642 ], [ 5.686061, 45.181677 ], [ 5.686103, 45.181721 ], [ 5.686127, 45.181768 ], [ 5.686127, 45.181833 ], [ 5.686112, 45.181881 ] ] } },
{ "type": "Feature", "properties": { "id": 14, "pente_pct": -0.9, "distance_debut": 763.09378428531886, "distance_fin": 801.24847349958475 }, "geometry": { "type": "LineString", "coordinates": [ [ 5.686112, 45.181881 ], [ 5.686065, 45.181987 ], [ 5.686036, 45.182061 ], [ 5.68603, 45.182136 ] ] } },
{ "type": "Feature", "properties": { "id": 15, "pente_pct": 2.9, "distance_debut": 801.24847349958475, "distance_fin": 839.40316271385075 }, "geometry": { "type": "LineString", "coordinates": [ [ 5.68603, 45.182136 ], [ 5.685997, 45.182305 ], [ 5.685987, 45.182468 ], [ 5.685991, 45.182588 ] ] } },
{ "type": "Feature", "properties": { "id": 16, "pente_pct": 8.8, "distance_debut": 839.40316271385075, "distance_fin": 979.30368983282585 }, "geometry": { "type": "LineString", "coordinates": [ [ 5.685991, 45.182588 ], [ 5.685938, 45.182744 ], [ 5.685751, 45.183071 ], [ 5.68563, 45.18331 ], [ 5.68558, 45.183394 ], [ 5.685499, 45.183462 ], [ 5.685383, 45.183532 ], [ 5.685337, 45.18356 ], [ 5.685214, 45.183616 ], [ 5.685115, 45.183672 ], [ 5.685028, 45.183766 ], [ 5.684903, 45.183946 ] ] } },
{ "type": "Feature", "properties": { "id": 17, "pente_pct": 5.4, "distance_debut": 979.30368983282585, "distance_fin": 1157.3589061660668 }, "geometry": { "type": "LineString", "coordinates": [ [ 5.684903, 45.183946 ], [ 5.684803, 45.184028 ], [ 5.684384, 45.1842 ], [ 5.683949, 45.184378 ], [ 5.683872, 45.184407 ], [ 5.68372, 45.184472 ], [ 5.683231, 45.184739 ], [ 5.682931, 45.184968 ], [ 5.682709, 45.185077 ], [ 5.682476, 45.185194 ], [ 5.682311, 45.185257 ], [ 5.682224, 45.185266 ], [ 5.682086, 45.185279 ], [ 5.682059, 45.185288 ], [ 5.68174, 45.18539 ] ] } },
{ "type": "Feature", "properties": { "id": 18, "pente_pct": 9.7, "distance_debut": 1157.3589061660668, "distance_fin": 1246.3865143326875 }, "geometry": { "type": "LineString", "coordinates": [ [ 5.68174, 45.18539 ], [ 5.681513, 45.185448 ], [ 5.681368, 45.185483 ], [ 5.681289, 45.185504 ], [ 5.680995, 45.185583 ], [ 5.68073, 45.185661 ], [ 5.680369, 45.185716 ], [ 5.680193, 45.185699 ] ] } },
{ "type": "Feature", "properties": { "id": 19, "pente_pct": 7.1, "distance_debut": 1246.3865143326875, "distance_fin": 1348.1323522373966 }, "geometry": { "type": "LineString", "coordinates": [ [ 5.680193, 45.185699 ], [ 5.680077, 45.185678 ], [ 5.679781, 45.185632 ], [ 5.679608, 45.185624 ], [ 5.679322, 45.185647 ], [ 5.679087, 45.185667 ], [ 5.678834, 45.185748 ], [ 5.678488, 45.185913 ], [ 5.678159, 45.1861 ] ] } },
{ "type": "Feature", "properties": { "id": 20, "pente_pct": 1.8, "distance_debut": 1348.1323522373966, "distance_fin": 1437.1599604040171 }, "geometry": { "type": "LineString", "coordinates": [ [ 5.678159, 45.1861 ], [ 5.678022, 45.186176 ], [ 5.677939, 45.186223 ], [ 5.677817, 45.186317 ], [ 5.677723, 45.186378 ], [ 5.677411, 45.186523 ], [ 5.677275, 45.18666 ], [ 5.677138, 45.186818 ] ] } },
{ "type": "Feature", "properties": { "id": 21, "pente_pct": 5.8, "distance_debut": 1437.1599604040171, "distance_fin": 1513.4693388325491 }, "geometry": { "type": "LineString", "coordinates": [ [ 5.677138, 45.186818 ], [ 5.677001, 45.18697 ], [ 5.676943, 45.18705 ], [ 5.676902, 45.187132 ], [ 5.676863, 45.18721 ], [ 5.676792, 45.187278 ], [ 5.676692, 45.187335 ] ] } },
{ "type": "Feature", "properties": { "id": 22, "pente_pct": 3.4, "distance_debut": 1513.4693388325491, "distance_fin": 1577.0604875229922 }, "geometry": { "type": "LineString", "coordinates": [ [ 5.676692, 45.187335 ], [ 5.676517, 45.187377 ], [ 5.67634, 45.1874 ], [ 5.676183, 45.187439 ], [ 5.676, 45.187537 ], [ 5.675683, 45.187706 ] ] } },
{ "type": "Feature", "properties": { "id": 23, "pente_pct": 6.0, "distance_debut": 1577.0604875229922, "distance_fin": 1589.7787172610808 }, "geometry": { "type": "LineString", "coordinates": [ [ 5.675683, 45.187706 ], [ 5.675612, 45.187731 ] ] } },
{ "type": "Feature", "properties": { "id": 24, "pente_pct": 13.6, "distance_debut": 1589.7787172610808, "distance_fin": 1691.5245551657902 }, "geometry": { "type": "LineString", "coordinates": [ [ 5.675612, 45.187731 ], [ 5.675536, 45.187742 ], [ 5.675363, 45.187715 ], [ 5.675197, 45.187644 ], [ 5.675055, 45.187588 ], [ 5.674862, 45.187504 ], [ 5.674768, 45.187423 ], [ 5.674716, 45.187359 ], [ 5.674669, 45.187309 ] ] } },
{ "type": "Feature", "properties": { "id": 25, "pente_pct": 8.9, "distance_debut": 1691.5245551657902, "distance_fin": 1755.1157038562333 }, "geometry": { "type": "LineString", "coordinates": [ [ 5.674669, 45.187309 ], [ 5.674606, 45.187282 ], [ 5.674555, 45.187277 ], [ 5.674496, 45.187289 ], [ 5.674412, 45.187328 ], [ 5.674181, 45.18745 ] ] } },
{ "type": "Feature", "properties": { "id": 26, "pente_pct": 11.3, "distance_debut": 1755.1157038562333, "distance_fin": 1805.9886228085879 }, "geometry": { "type": "LineString", "coordinates": [ [ 5.674181, 45.18745 ], [ 5.674009, 45.187531 ], [ 5.673868, 45.187643 ], [ 5.673738, 45.187701 ], [ 5.673641, 45.187725 ] ] } },
{ "type": "Feature", "properties": { "id": 27, "pente_pct": 15.2, "distance_debut": 1805.9886228085879, "distance_fin": 1844.1433120228539 }, "geometry": { "type": "LineString", "coordinates": [ [ 5.673641, 45.187725 ], [ 5.673541, 45.187725 ], [ 5.673413, 45.187733 ], [ 5.673293, 45.187753 ] ] } },
{ "type": "Feature", "properties": { "id": 28, "pente_pct": 11.6, "distance_debut": 1844.1433120228539, "distance_fin": 1920.4526904513857 }, "geometry": { "type": "LineString", "coordinates": [ [ 5.673293, 45.187753 ], [ 5.673122, 45.187833 ], [ 5.672803, 45.188038 ], [ 5.67262, 45.1882 ], [ 5.672503, 45.188254 ], [ 5.67243, 45.18827 ], [ 5.672366, 45.188233 ] ] } },
{ "type": "Feature", "properties": { "id": 29, "pente_pct": 12.7, "distance_debut": 1920.4526904513857, "distance_fin": 1958.6073796656517 }, "geometry": { "type": "LineString", "coordinates": [ [ 5.672366, 45.188233 ], [ 5.672298, 45.188145 ], [ 5.672192, 45.187831 ], [ 5.672107, 45.18773 ] ] } },
{ "type": "Feature", "properties": { "id": 30, "pente_pct": 9.7, "distance_debut": 1958.6073796656517, "distance_fin": 1996.7620688799177 }, "geometry": { "type": "LineString", "coordinates": [ [ 5.672107, 45.18773 ], [ 5.671936, 45.187528 ], [ 5.671834, 45.187223 ], [ 5.671803, 45.187049 ] ] } },
{ "type": "Feature", "properties": { "id": 31, "pente_pct": 11.5, "distance_debut": 1996.7620688799177, "distance_fin": 2085.7896770465381 }, "geometry": { "type": "LineString", "coordinates": [ [ 5.671803, 45.187049 ], [ 5.671732, 45.186967 ], [ 5.671653, 45.186952 ], [ 5.67159, 45.18695 ], [ 5.670904, 45.186977 ], [ 5.670775, 45.186967 ], [ 5.670742, 45.186948 ], [ 5.670753, 45.186867 ] ] } },
{ "type": "Feature", "properties": { "id": 32, "pente_pct": 9.5, "distance_debut": 2085.7896770465381, "distance_fin": 2111.2261365227155 }, "geometry": { "type": "LineString", "coordinates": [ [ 5.670753, 45.186867 ], [ 5.6708, 45.186756 ], [ 5.670891, 45.186645 ] ] } }
]
}
